    CK16V18Z  2017 03  7.3542  0.909192  0.995104   36.3574   98.9312   24.0574  20180623  19.5  4.0  C/2016 VZ18 (PANSTARRS)                                  MPC106345
    PK16W48M  2017 02 26.7334  1.749618  0.786470   35.8959   59.8725  117.5536  20180623  15.0  4.0  P/2016 WM48 (Lemmon)                                     MPC106345
    CK16X010  2019 04 29.9670  7.563797  0.996643  224.5788  256.4247   26.4544  20180623   6.0  4.0  C/2016 X1 (Lemmon)                                       MPC110082
    CK17A010  2017 05 17.1367  2.290917  0.971345    2.0744  121.0544   49.7919  20180623  13.0  4.0  C/2017 A1 (PANSTARRS)                                    MPC108594
    CK17A030  2017 01 30.6624  3.854453  0.911268  304.1128   97.9007   98.5240  20180623   9.5  4.0  C/2017 A3 (Elenin)                                       MPC108594
    CK17A05B  2018 02 18.0786  9.216232  0.999310   78.4073   42.6890   32.4308  20180623   5.5  4.0  C/2017 AB5 (PANSTARRS)                                   MPC110082
    CK17B030  2019 02  2.3885  3.921414  1.002210  284.7258    2.1826   54.1794  20180623   6.0  4.0  C/2017 B3 (LINEAR)                                       MPC110494
    PK17B040  2017 01  5.8178  2.800894  0.364952   11.0197  121.4578   20.0584            14.5  4.0  P/2017 B4 (PANSTARRS)                                    MPC103847
    CK17C010  2017 01 18.8655  1.501265  0.927617  110.1843  357.4373   65.7223  20180623  18.0  4.0  C/2017 C1 (NEOWISE)                                      MPC104793
    CK17C020  2017 01 21.6244  2.430305  0.975467  138.7623  249.8244  118.5912  20180623  14.0  4.0  C/2017 C2 (PANSTARRS)                                    MPC107685
    PK17D010  2016 06 29.1376  2.696127  0.440219    7.7195   82.2304   20.7444  20180623  14.0  4.0  P/2017 D1 (Fuls)                                         MPC104793
    CK17D020  2017 07 14.5666  2.485898  0.998471  334.3501  331.0366   31.2617  20180623  11.0  4.0  C/2017 D2 (Barros)                                       MPC110082
    CK17D030  2017 04 26.7764  4.971943  1.001376  340.7819  186.6163  125.5569  20180623   8.0  4.0  C/2017 D3 (ATLAS)                                        MPC110494
    PK17D040  2016 09  9.1220  2.772838  0.632496  211.3033  265.3344   10.4367  20180623  13.0  4.0  P/2017 D4 (PANSTARRS)                                    MPC110495
    CK17D050  2017 01  8.9297  2.167314  0.980971  287.8380   92.7254  131.0503  20180623  16.0  4.0  C/2017 D5 (PANSTARRS)                                    MPC104794
    CK17E010  2017 04 10.1806  0.900381  1.002709  152.4924  142.7097   14.5545  20180623  14.0  4.0  C/2017 E1 (Borisov)                                      MPC106346
    CK17E020  2016 05 12.1500  2.350816  0.891405   89.4183   11.5423   78.9926  20180623  11.5  4.0  C/2017 E2 (Tsuchinshan)                                  MPC109144
    CK17E030  2017 06  8.1837  5.930728  1.010618  334.4283  220.7377   70.6634  20180623   6.5  4.0  C/2017 E3 (PANSTARRS)                                    MPC110495
    CK17E040  2017 04 23.3092  0.493516  1.001493   87.1261  223.2039   88.1786  20180623  17.0  4.0  C/2017 E4 (Lovejoy)                                      MPC105239
    CK17E050  2016 06 10.6822  1.783924  0.995200  306.7660  206.2037  122.6458  20180623  13.0  4.0  C/2017 E5 (Lemmon)                                       MPC105239
    CK17F010  2017 11 30.9875  4.499729  1.004755   64.8207  158.7504  146.4819  20180623  10.5  4.0  C/2017 F1 (Lemmon)                                       MPC109144
    CK17F020  2017 11 26.9950  6.928029  1.005636  134.9634   38.6683   42.5072  20180623   7.5  4.0  C/2017 F2 (PANSTARRS)                                    MPC110495
    PK17G010  2016 05  6.9424  2.510837  0.660129  224.5773  249.8818    4.6926  20180623  13.5  4.0  P/2017 G1 (PANSTARRS)                                    MPC104794
    PK17G020  2017 06 13.7491  2.845311  0.650294  105.9054   79.7992   47.9380  20180623  13.0  4.0  P/2017 G2 (PANSTARRS)                                    MPC108595
    CK17G030  2017 04 15.0266  2.590937  0.990797   73.1115  279.4816  159.0526  20180623  14.0  4.0  C/2017 G3 (PANSTARRS)                                    MPC109144
    CK17K010  2018 03 15.2550  7.285876  1.001457    4.2373  225.6413  154.0067  20180623   7.0  4.0  C/2017 K1 (PANSTARRS)                                    MPC110495
    CK17K020  2022 12 20.8728  1.807497  1.000368  236.0551   88.2451   87.5460  20180623   1.5  4.0  C/2017 K2 (PANSTARRS)                                    MPC110495
    PK17K030  2017 05 31.7165  2.334593  0.581140  253.3057  354.3149    4.2784  20180623  14.5  4.0  P/2017 K3 (Gasparovic)                                   MPC106346
    CK17K040  2018 01  8.0496  2.648105  0.905945   15.1152  298.8954   16.6782  20180623  10.0  4.0  C/2017 K4 (ATLAS)                                        MPC110495
    CK17K050  2020 03 22.2063  7.681421  1.003546  171.6890  102.3754   82.2595  20180623   7.0  4.0  C/2017 K5 (PANSTARRS)                                    MPC110495
    CK17K060  2018 01  3.1308  2.002699  0.998229  303.8351   85.0538   57.2531  20180623  11.0  4.0  C/2017 K6 (Jacques)                                      MPC110495
    CK17M030  2017 04 28.4531  4.657139  0.973148  110.3545    6.9996   77.5029  20180623  10.5  4.0  C/2017 M3 (PANSTARRS)                                    MPC110083
    CK17M040  2019 01 18.3336  3.251652  1.001143  167.6530   65.8684  105.6571  20180623   6.0  4.0  C/2017 M4 (ATLAS)                                        MPC110495
    CK17M050  2018 06  2.9867  5.989526  1.003836   92.6620  216.2628   15.8849  20180623   6.5  4.0  C/2017 M5 (TOTAS)                                        MPC110495
    CK17O010  2017 10 14.7694  1.498632  0.996241   20.9020   25.8084   39.8483  20180623  11.0  4.0  C/2017 O1 (ASASSN)                                       MPC110495
    PK17P010  2018 06 17.0623  5.438919  0.308978  122.1404  221.3916    7.7016  20180623  10.0  4.0  P/2017 P1 (PANSTARRS)                                    MPC106347
    CK17P020  2017 12  6.5814  2.461849  0.998271  132.2445  165.5456   50.0828  20180623  10.0  4.0  C/2017 P2 (PANSTARRS)                                    MPC107686
    PK17R010  2017 04  8.2781  3.327130  0.195077  178.3868  143.6476    2.5731  20180623  13.5  4.0  P/2017 R1 (PANSTARRS)                                    MPC108595
    CK17S020  2017 08 29.2540  3.614175  0.823253  305.9538   62.4275   12.6836  20180623  13.0  4.0  C/2017 S2 (PANSTARRS)                                    MPC108595
    CK17S030  2018 08 15.9447  0.208452  1.000087  255.8900  171.0401   99.0387  20180623  11.0  4.0  C/2017 S3 (PANSTARRS)                                    MPC110495
    PK17S050  2017 07 27.9158  2.177853  0.313169   99.8985  252.3913   11.8501  20180623  14.0  4.0  P/2017 S5 (ATLAS)                                        MPC110083
    CK17S060  2018 02 26.9366  1.542923  1.001277  134.6900  130.8751  152.8267  20180623  12.5  4.0  C/2017 S6 (Catalina)                                     MPC109591
    CK17S070  2017 05 27.7024  7.614079  1.002683  187.7362  262.7921  124.2308  20180623   7.0  4.0  C/2017 S7 (Lemmon)                                       MPC110496
    PK17S080  2018 01 28.6303  1.683280  0.393549  254.5501  191.8067   29.8594  20180623  16.0  4.0  P/2017 S8 (PANSTARRS)                                    MPC109145
    PK17S090  2017 07 23.4275  2.194811  0.304586  237.8529  146.2121   14.1389  20180623  17.0  4.0  P/2017 S9 (PANSTARRS)                                    MPC107050
    CK17T010  2018 02 21.7086  0.580573  1.000080   96.8993  102.3165   96.8354  20180623  14.5  4.0  C/2017 T1 (Heinze)                                       MPC109145
    CK17T020  2020 05  4.8380  1.614019  0.999908   93.0105   64.3787   57.2362  20180623   5.0  4.0  C/2017 T2 (PANSTARRS)                                    MPC109591
    CK17T030  2018 07 19.1509  0.825353  0.999396  246.8866  230.0857   88.1083  20180623  10.0  4.0  C/2017 T3 (ATLAS)                                        MPC110083
    CK17U020  2017 08 28.0970  6.700331  0.999378  147.7258  149.7171   95.4197  20180623   9.0  4.0  C/2017 U2 (Fuls)                                         MPC109145
    PK17U030  2019 04 21.8465  4.444230  0.099549  297.4505  165.1393   15.9075  20180623  11.0  4.0  P/2017 U3 (PANSTARRS)                                    MPC109146
    CK17U040  2018 09 25.5756  7.724083  1.003842  159.1717  245.9516  158.2264  20180623   7.0  4.0  C/2017 U4 (PANSTARRS)                                    MPC109146
    CK17U050  2017 12 18.9407  4.326701  0.744311  262.1328  163.1095   18.9569  20180623  12.0  4.0  C/2017 U5 (PANSTARRS)                                    MPC109146
    CK17W020  2017 11  1.9876  3.957444  0.711337  169.1662  312.8103   98.1847  20180623  11.0  4.0  C/2017 W2 (Leonard)                                      MPC110496
    PK17W030  2018 02 25.2248  3.837337  0.504489  326.4824  210.7551   18.3155  20180623  10.5  4.0  P/2017 W3 (Gibbs)                                        MPC110496
    CK17X010  2018 06 14.5552  4.662480  0.851114  283.1214  251.1264   31.3109  20180623  10.0  4.0  C/2017 X1 (PANSTARRS)                                    MPC110083
    CK17Y010  2017 08 31.4159  3.718315  0.998745  134.4368  307.5110   55.2394  20180623  11.5  4.0  C/2017 Y1 (PANSTARRS)                                    MPC109146
    CK17Y020  2021 04 23.4935  5.180966  0.673915  146.0977   61.4857  126.0741  20180623   8.0  4.0  C/2017 Y2 (PANSTARRS)                                    MPC109146
    PK17Y030  2018 02 11.2570  1.275373  0.870619   67.5288  153.8718   27.5859  20180623  16.5  4.0  P/2017 Y3 (Leonard)                                      MPC110083
    CK18A010  2017 10 20.4164  2.419361  0.904247   96.3844  336.6204   53.5611  20180623  12.5  4.0  C/2018 A1 (PANSTARRS)                                    MPC110083
